{
  "type": "FeatureCollection",
  "features": [
    {
      "type": "Feature",
      "properties": {
        "norad_id": 67091,
        "name": "STARLINK-36097",
        "group": "last-30-days",
        "lat": -65.13415465066716,
        "lon": 79.00935196726341,
        "alt_km": 359.99963270533135,
        "timestamp": "2025-12-27T18:38:02.207239+00:00",
        "meta_object_name": "STARLINK-36097",
        "meta_object_id": "2025-298S",
        "meta_epoch": "2025-12-27T12:00:02.000160",
        "meta_mean_motion": 15.72199205,
        "meta_eccentricity": 0.0003285,
        "meta_inclination": 69.9998,
        "meta_ra_of_asc_node": 207.9828,
        "meta_arg_of_pericenter": 270.0749,
        "meta_mean_anomaly": 221.4636,
        "meta_ephemeris_type": 0,
        "meta_classification_type": "U",
        "meta_norad_cat_id": 67091,
        "meta_element_set_no": 999,
        "meta_rev_at_epoch": 335,
        "meta_bstar": -0.014321,
        "meta_mean_motion_dot": -0.01676815,
        "meta_mean_motion_ddot": 0,
        "tle_line1": "1 67091U 25298S   25361.50002315 -.01676815  00000+0 -14321-1 0  9999",
        "tle_line2": "2 67091  69.9998 207.9828 0003285 270.0749 221.4636 15.72199205  3354"
      },
      "geometry": {
        "type": "Point",
        "coordinates": [
          79.00935196726341,
          -65.13415465066716
        ]
      }
    },
    {
      "type": "Feature",
      "properties": {
        "norad_id": 67092,
        "name": "STARLINK-35792",
        "group": "last-30-days",
        "lat": -66.17952666419777,
        "lon": 82.79477210484482,
        "alt_km": 359.9073625742358,
        "timestamp": "2025-12-27T18:38:02.207249+00:00",
        "meta_object_name": "STARLINK-35792",
        "meta_object_id": "2025-298T",
        "meta_epoch": "2025-12-27T12:00:02.000160",
        "meta_mean_motion": 15.72202405,
        "meta_eccentricity": 0.0003412,
        "meta_inclination": 69.9998,
        "meta_ra_of_asc_node": 207.9806,
        "meta_arg_of_pericenter": 270.7383,
        "meta_mean_anomaly": 222.6795,
        "meta_ephemeris_type": 0,
        "meta_classification_type": "U",
        "meta_norad_cat_id": 67092,
        "meta_element_set_no": 999,
        "meta_rev_at_epoch": 329,
        "meta_bstar": -0.014326,
        "meta_mean_motion_dot": -0.01677685,
        "meta_mean_motion_ddot": 0,
        "tle_line1": "1 67092U 25298T   25361.50002315 -.01677685  00000+0 -14326-1 0  9991",
        "tle_line2": "2 67092  69.9998 207.9806 0003412 270.7383 222.6795 15.72202405  3293"
      },
      "geometry": {
        "type": "Point",
        "coordinates": [
          82.79477210484482,
          -66.17952666419777
        ]
      }
    },
    {
      "type": "Feature",
      "properties": {
        "norad_id": 67093,
        "name": "STARLINK-35784",
        "group": "last-30-days",
        "lat": -67.16782741981096,
        "lon": 87.09874535481237,
        "alt_km": 359.90062718580066,
        "timestamp": "2025-12-27T18:38:02.207259+00:00",
        "meta_object_name": "STARLINK-35784",
        "meta_object_id": "2025-298U",
        "meta_epoch": "2025-12-27T12:00:02.000160",
        "meta_mean_motion": 15.72252343,
        "meta_eccentricity": 0.0003468,
        "meta_inclination": 69.9994,
        "meta_ra_of_asc_node": 207.9776,
        "meta_arg_of_pericenter": 273.6196,
        "meta_mean_anomaly": 221.7512,
        "meta_ephemeris_type": 0,
        "meta_classification_type": "U",
        "meta_norad_cat_id": 67093,
        "meta_element_set_no": 999,
        "meta_rev_at_epoch": 335,
        "meta_bstar": -0.01506,
        "meta_mean_motion_dot": -0.01756648,
        "meta_mean_motion_ddot": 0,
        "tle_line1": "1 67093U 25298U   25361.50002315 -.01756648  00000+0 -15060-1 0  9995",
        "tle_line2": "2 67093  69.9994 207.9776 0003468 273.6196 221.7512 15.72252343  3351"
      },
      "geometry": {
        "type": "Point",
        "coordinates": [
          87.09874535481237,
          -67.16782741981096
        ]
      }
    },
    {
      "type": "Feature",
      "properties": {
        "norad_id": 67094,
        "name": "STARLINK-36202",
        "group": "last-30-days",
        "lat": -68.06722188867614,
        "lon": 91.96519239972126,
        "alt_km": 359.9763890331242,
        "timestamp": "2025-12-27T18:38:02.207269+00:00",
        "meta_object_name": "STARLINK-36202",
        "meta_object_id": "2025-298V",
        "meta_epoch": "2025-12-27T12:00:02.000160",
        "meta_mean_motion": 15.72190091,
        "meta_eccentricity": 0.0003349,
        "meta_inclination": 69.9995,
        "meta_ra_of_asc_node": 207.9753,
        "meta_arg_of_pericenter": 271.424,
        "meta_mean_anomaly": 226.0431,
        "meta_ephemeris_type": 0,
        "meta_classification_type": "U",
        "meta_norad_cat_id": 67094,
        "meta_element_set_no": 999,
        "meta_rev_at_epoch": 335,
        "meta_bstar": -0.014332,
        "meta_mean_motion_dot": -0.01677528,
        "meta_mean_motion_ddot": 0,
        "tle_line1": "1 67094U 25298V   25361.50002315 -.01677528  00000+0 -14332-1 0  9996",
        "tle_line2": "2 67094  69.9995 207.9753 0003349 271.4240 226.0431 15.72190091  3351"
      },
      "geometry": {
        "type": "Point",
        "coordinates": [
          91.96519239972126,
          -68.06722188867614
        ]
      }
    },
    {
      "type": "Feature",
      "properties": {
        "norad_id": 67095,
        "name": "STARLINK-36227",
        "group": "last-30-days",
        "lat": -68.7919257022677,
        "lon": 97.0257443066341,
        "alt_km": 359.93021829356894,
        "timestamp": "2025-12-27T18:38:02.207281+00:00",
        "meta_object_name": "STARLINK-36227",
        "meta_object_id": "2025-298W",
        "meta_epoch": "2025-12-27T12:00:02.000160",
        "meta_mean_motion": 15.7218486,
        "meta_eccentricity": 0.0003419,
        "meta_inclination": 69.9996,
        "meta_ra_of_asc_node": 207.9728,
        "meta_arg_of_pericenter": 271.3735,
        "meta_mean_anomaly": 228.0977,
        "meta_ephemeris_type": 0,
        "meta_classification_type": "U",
        "meta_norad_cat_id": 67095,
        "meta_element_set_no": 999,
        "meta_rev_at_epoch": 329,
        "meta_bstar": -0.0143,
        "meta_mean_motion_dot": -0.01673936,
        "meta_mean_motion_ddot": 0,
        "tle_line1": "1 67095U 25298W   25361.50002315 -.01673936  00000+0 -14300-1 0  9991",
        "tle_line2": "2 67095  69.9996 207.9728 0003419 271.3735 228.0977 15.72184860  3298"
      },
      "geometry": {
        "type": "Point",
        "coordinates": [
          97.0257443066341,
          -68.7919257022677
        ]
      }
    },
    {
      "type": "Feature",
      "properties": {
        "norad_id": 67096,
        "name": "STARLINK-36228",
        "group": "last-30-days",
        "lat": -69.31902449383938,
        "lon": 101.96924333256648,
        "alt_km": 359.8679986979696,
        "timestamp": "2025-12-27T18:38:02.207291+00:00",
        "meta_object_name": "STARLINK-36228",
        "meta_object_id": "2025-298X",
        "meta_epoch": "2025-12-27T12:00:02.000160",
        "meta_mean_motion": 15.72190038,
        "meta_eccentricity": 0.0003493,
        "meta_inclination": 69.9996,
        "meta_ra_of_asc_node": 207.9709,
        "meta_arg_of_pericenter": 271.9827,
        "meta_mean_anomaly": 229.3319,
        "meta_ephemeris_type": 0,
        "meta_classification_type": "U",
        "meta_norad_cat_id": 67096,
        "meta_element_set_no": 999,
        "meta_rev_at_epoch": 329,
        "meta_bstar": -0.014322,
        "meta_mean_motion_dot": -0.01676614,
        "meta_mean_motion_ddot": 0,
        "tle_line1": "1 67096U 25298X   25361.50002315 -.01676614  00000+0 -14322-1 0  9992",
        "tle_line2": "2 67096  69.9996 207.9709 0003493 271.9827 229.3319 15.72190038  3296"
      },
      "geometry": {
        "type": "Point",
        "coordinates": [
          101.96924333256648,
          -69.31902449383938
        ]
      }
    },
    {
      "type": "Feature",
      "properties": {
        "norad_id": 67097,
        "name": "STARLINK-36222",
        "group": "last-30-days",
        "lat": -69.72876379027146,
        "lon": 107.66132534956468,
        "alt_km": 359.9226019796524,
        "timestamp": "2025-12-27T18:38:02.207301+00:00",
        "meta_object_name": "STARLINK-36222",
        "meta_object_id": "2025-298Y",
        "meta_epoch": "2025-12-27T12:00:02.000160",
        "meta_mean_motion": 15.72315724,
        "meta_eccentricity": 0.0003501,
        "meta_inclination": 69.9995,
        "meta_ra_of_asc_node": 207.9681,
        "meta_arg_of_pericenter": 265.1824,
        "meta_mean_anomaly": 238.1149,
        "meta_ephemeris_type": 0,
        "meta_classification_type": "U",
        "meta_norad_cat_id": 67097,
        "meta_element_set_no": 999,
        "meta_rev_at_epoch": 329,
        "meta_bstar": -0.016409,
        "meta_mean_motion_dot": -0.01897758,
        "meta_mean_motion_ddot": 0,
        "tle_line1": "1 67097U 25298Y   25361.50002315 -.01897758  00000+0 -16409-1 0  9995",
        "tle_line2": "2 67097  69.9995 207.9681 0003501 265.1824 238.1149 15.72315724  3297"
      },
      "geometry": {
        "type": "Point",
        "coordinates": [
          107.66132534956468,
          -69.72876379027146
        ]
      }
    }
  ]
}